start=new Date('2023-04-28T00:00:00.000Z').valueOf();
sats=[{"OBJECT_TYPE":"PAYLOAD","MEAN_ANOMALY":"220.5826","REV_AT_EPOCH":"2929","LAUNCH_DATE":"2022-10-20","CLASSIFICATION_TYPE":"U","SITE":"AFETR","INCLINATION":"53.2136","TIME_SYSTEM":"UTC","SEMIMAJOR_AXIS":"6917.911","RA_OF_ASC_NODE":"3.1613","DECAY_DATE":null,"GP_ID":"230847472","RCS_SIZE":"LARGE","PERIAPSIS":"538.073","MEAN_MOTION_DDOT":"0.0000000000000","EPHEMERIS_TYPE":"0","BSTAR":"0.00044881000000","ELEMENT_SET_NO":"999","NORAD_CAT_ID":"54069","ECCENTRICITY":"0.00024620","MEAN_ELEMENT_THEORY":"SGP4","MEAN_MOTION_DOT":"0.00006860","FILE":"3895028","COUNTRY_CODE":"US","OBJECT_NAME":"STARLINK-5223","TLE_LINE1":"1 54069U 22136U   23117.86345449  .00006860  00000-0  44881-3 0  9993","TLE_LINE2":"2 54069  53.2136   3.1613 0002462 139.5350 220.5826 15.08829852 29295","REF_FRAME":"TEME","OBJECT_ID":"2022-136U","PERIOD":"95.438","EPOCH":"2023-04-27T20:43:22.467936","ARG_OF_PERICENTER":"139.5350","APOAPSIS":"541.480","MEAN_MOTION":"15.08829852","CENTER_NAME":"EARTH"},{"TLE_LINE1":"1 54070U 22136V   23117.87177802  .00003798  00000-0  25637-3 0  9997","TLE_LINE2":"2 54070  53.2182   3.2082 0000647 144.4245 215.6791 15.08866948 29293","REF_FRAME":"TEME","OBJECT_ID":"2022-136V","PERIOD":"95.436","EPOCH":"2023-04-27T20:55:21.620928","ARG_OF_PERICENTER":"144.4245","APOAPSIS":"540.111","MEAN_MOTION":"15.08866948","CENTER_NAME":"EARTH","EPHEMERIS_TYPE":"0","BSTAR":"0.00025637000000","ELEMENT_SET_NO":"999","ECCENTRICITY":"0.00006470","NORAD_CAT_ID":"54070","MEAN_ELEMENT_THEORY":"SGP4","MEAN_MOTION_DOT":"0.00003798","FILE":"3895028","COUNTRY_CODE":"US","OBJECT_NAME":"STARLINK-5181","SEMIMAJOR_AXIS":"6917.798","RA_OF_ASC_NODE":"3.2082","DECAY_DATE":null,"GP_ID":"230847469","RCS_SIZE":"LARGE","PERIAPSIS":"539.215","MEAN_MOTION_DDOT":"0.0000000000000","OBJECT_TYPE":"PAYLOAD","REV_AT_EPOCH":"2929","MEAN_ANOMALY":"215.6791","LAUNCH_DATE":"2022-10-20","CLASSIFICATION_TYPE":"U","SITE":"AFETR","TIME_SYSTEM":"UTC","INCLINATION":"53.2182"},{"OBJECT_ID":"2022-136W","REF_FRAME":"TEME","TLE_LINE2":"2 54071  53.2164   7.6507 0000846  88.1342 271.9747 15.08801167 29149","TLE_LINE1":"1 54071U 22136W   23116.87355787  .00043109  00000-0  27131-2 0  9997","CENTER_NAME":"EARTH","MEAN_MOTION":"15.08801167","APOAPSIS":"540.449","PERIOD":"95.440","ARG_OF_PERICENTER":"88.1342","EPOCH":"2023-04-26T20:57:55.399968","MEAN_ELEMENT_THEORY":"SGP4","NORAD_CAT_ID":"54071","ECCENTRICITY":"0.00008460","ELEMENT_SET_NO":"999","BSTAR":"0.00271310000000","EPHEMERIS_TYPE":"0","OBJECT_NAME":"STARLINK-5168","COUNTRY_CODE":"US","FILE":"3894499","MEAN_MOTION_DOT":"0.00043109","RA_OF_ASC_NODE":"7.6507","SEMIMAJOR_AXIS":"6917.999","MEAN_MOTION_DDOT":"0.0000000000000","PERIAPSIS":"539.279","RCS_SIZE":"LARGE","GP_ID":"230808865","DECAY_DATE":null,"LAUNCH_DATE":"2022-10-20","MEAN_ANOMALY":"271.9747","REV_AT_EPOCH":"2914","OBJECT_TYPE":"PAYLOAD","TIME_SYSTEM":"UTC","INCLINATION":"53.2164","SITE":"AFETR","CLASSIFICATION_TYPE":"U"},{"INCLINATION":"53.2171","TIME_SYSTEM":"UTC","CLASSIFICATION_TYPE":"U","SITE":"AFETR","LAUNCH_DATE":"2022-10-20","OBJECT_TYPE":"PAYLOAD","MEAN_ANOMALY":"272.5598","REV_AT_EPOCH":"2929","RCS_SIZE":"LARGE","PERIAPSIS":"538.792","MEAN_MOTION_DDOT":"0.0000000000000","DECAY_DATE":null,"GP_ID":"230847467","RA_OF_ASC_NODE":"3.2082","SEMIMAJOR_AXIS":"6917.827","OBJECT_NAME":"STARLINK-5144","MEAN_MOTION_DOT":"0.00018896","FILE":"3895028","COUNTRY_CODE":"US","MEAN_ELEMENT_THEORY":"SGP4","EPHEMERIS_TYPE":"0","BSTAR":"0.00120160000000","ELEMENT_SET_NO":"999","NORAD_CAT_ID":"54072","ECCENTRICITY":"0.00013000","MEAN_MOTION":"15.08857589","CENTER_NAME":"EARTH","PERIOD":"95.436","ARG_OF_PERICENTER":"87.5543","EPOCH":"2023-04-27T20:54:00.417888","APOAPSIS":"540.591","OBJECT_ID":"2022-136X","TLE_LINE1":"1 54072U 22136X   23117.87083817  .00018896  00000-0  12016-2 0  9992","TLE_LINE2":"2 54072  53.2171   3.2082 0001300  87.5543 272.5598 15.08857589 29296","REF_FRAME":"TEME"},{"MEAN_MOTION_DDOT":"0.0000000000000","RCS_SIZE":"LARGE","PERIAPSIS":"534.201","DECAY_DATE":null,"GP_ID":"230847227","RA_OF_ASC_NODE":"359.3480","SEMIMAJOR_AXIS":"6912.875","INCLINATION":"53.2152","TIME_SYSTEM":"UTC","CLASSIFICATION_TYPE":"U","SITE":"AFETR","LAUNCH_DATE":"2022-10-20","MEAN_ANOMALY":"235.1682","REV_AT_EPOCH":"2933","OBJECT_TYPE":"PAYLOAD","CENTER_NAME":"EARTH","MEAN_MOTION":"15.10478908","APOAPSIS":"535.280","EPOCH":"2023-04-27T17:02:48.432192","PERIOD":"95.334","ARG_OF_PERICENTER":"124.9385","OBJECT_ID":"2022-136Y","TLE_LINE2":"2 54073  53.2152 359.3480 0000781 124.9385 235.1682 15.10478908 29336","REF_FRAME":"TEME","TLE_LINE1":"1 54073U 22136Y   23117.71028278  .00012450  00000-0  76401-3 0  9995","OBJECT_NAME":"STARLINK-5146","COUNTRY_CODE":"US","MEAN_MOTION_DOT":"0.00012450","FILE":"3895028","MEAN_ELEMENT_THEORY":"SGP4","ELEMENT_SET_NO":"999","BSTAR":"0.00076401000000","ECCENTRICITY":"0.00007810","NORAD_CAT_ID":"54073","EPHEMERIS_TYPE":"0"},{"RA_OF_ASC_NODE":"3.1405","SEMIMAJOR_AXIS":"6917.835","PERIAPSIS":"538.987","RCS_SIZE":"LARGE","MEAN_MOTION_DDOT":"0.0000000000000","GP_ID":"230847812","DECAY_DATE":null,"LAUNCH_DATE":"2022-10-20","OBJECT_TYPE":"PAYLOAD","REV_AT_EPOCH":"2929","MEAN_ANOMALY":"253.9255","INCLINATION":"53.2172","TIME_SYSTEM":"UTC","SITE":"AFETR","CLASSIFICATION_TYPE":"U","OBJECT_ID":"2022-136Z","TLE_LINE1":"1 54074U 22136Z   23117.85977859  .00012335  00000-0  79143-3 0  9997","REF_FRAME":"TEME","TLE_LINE2":"2 54074  53.2172   3.1405 0001030 106.1850 253.9255 15.08854881 29291","MEAN_MOTION":"15.08854881","CENTER_NAME":"EARTH","PERIOD":"95.437","ARG_OF_PERICENTER":"106.1850","EPOCH":"2023-04-27T20:38:04.870176","APOAPSIS":"540.412","MEAN_ELEMENT_THEORY":"SGP4","EPHEMERIS_TYPE":"0","NORAD_CAT_ID":"54074","ECCENTRICITY":"0.00010300","BSTAR":"0.00079143000000","ELEMENT_SET_NO":"999","OBJECT_NAME":"STARLINK-5192","FILE":"3895043","MEAN_MOTION_DOT":"0.00012335","COUNTRY_CODE":"US"},{"INCLINATION":"53.2176","TIME_SYSTEM":"UTC","SITE":"AFETR","CLASSIFICATION_TYPE":"U","LAUNCH_DATE":"2022-10-20","MEAN_ANOMALY":"256.5882","REV_AT_EPOCH":"2933","OBJECT_TYPE":"PAYLOAD","MEAN_MOTION_DDOT":"0.0000000000000","PERIAPSIS":"534.018","RCS_SIZE":"LARGE","GP_ID":"230847587","DECAY_DATE":null,"RA_OF_ASC_NODE":"359.1876","SEMIMAJOR_AXIS":"6912.826","OBJECT_NAME":"STARLINK-5212","COUNTRY_CODE":"US","FILE":"3895043","MEAN_MOTION_DOT":"0.00017716","MEAN_ELEMENT_THEORY":"SGP4","NORAD_CAT_ID":"54075","ECCENTRICITY":"0.00009730","BSTAR":"0.00107850000000","ELEMENT_SET_NO":"999","EPHEMERIS_TYPE":"0","CENTER_NAME":"EARTH","MEAN_MOTION":"15.10495143","APOAPSIS":"535.364","ARG_OF_PERICENTER":"103.5219","PERIOD":"95.333","EPOCH":"2023-04-27T16:25:35.164992","OBJECT_ID":"2022-136AA","REF_FRAME":"TEME","TLE_LINE2":"2 54075  53.2176 359.1876 0000973 103.5219 256.5882 15.10495143 29332","TLE_LINE1":"1 54075U 22136AA  23117.68443478  .00017716  00000-0  10785-2 0  9998"},{"SITE":"AFETR","CLASSIFICATION_TYPE":"U","INCLINATION":"53.2180","TIME_SYSTEM":"UTC","OBJECT_TYPE":"PAYLOAD","MEAN_ANOMALY":"255.1809","REV_AT_EPOCH":"2868","LAUNCH_DATE":"2022-10-20","GP_ID":"230839444","DECAY_DATE":null,"PERIAPSIS":"538.825","RCS_SIZE":"LARGE","MEAN_MOTION_DDOT":"0.0000000000000","SEMIMAJOR_AXIS":"6917.921","RA_OF_ASC_NODE":"6.9850","FILE":"3894751","MEAN_MOTION_DOT":"0.00025172","COUNTRY_CODE":"US","OBJECT_NAME":"STARLINK-5201","EPHEMERIS_TYPE":"0","NORAD_CAT_ID":"54076","ECCENTRICITY":"0.00013900","ELEMENT_SET_NO":"999","BSTAR":"0.00159460000000","MEAN_ELEMENT_THEORY":"SGP4","EPOCH":"2023-04-26T23:52:45.780384","PERIOD":"95.438","ARG_OF_PERICENTER":"104.9337","APOAPSIS":"540.748","MEAN_MOTION":"15.08826679","CENTER_NAME":"EARTH","TLE_LINE1":"1 54076U 22136AB  23116.99497431  .00025172  00000-0  15946-2 0  9999","REF_FRAME":"TEME","TLE_LINE2":"2 54076  53.2180   6.9850 0001390 104.9337 255.1809 15.08826679 28687","OBJECT_ID":"2022-136AB"},{"MEAN_ELEMENT_THEORY":"SGP4","BSTAR":"0.00022338000000","ELEMENT_SET_NO":"999","ECCENTRICITY":"0.00015530","NORAD_CAT_ID":"54077","EPHEMERIS_TYPE":"0","OBJECT_NAME":"STARLINK-5171","COUNTRY_CODE":"US","MEAN_MOTION_DOT":"0.00003270","FILE":"3895043","OBJECT_ID":"2022-136AC","TLE_LINE2":"2 54077  53.2171 343.2427 0001553  77.8735 282.2431 15.08851696 29574","REF_FRAME":"TEME","TLE_LINE1":"1 54077U 22136AC  23117.86994362  .00003270  00000-0  22338-3 0  9991","CENTER_NAME":"EARTH","MEAN_MOTION":"15.08851696","APOAPSIS":"540.784","PERIOD":"95.437","ARG_OF_PERICENTER":"77.8735","EPOCH":"2023-04-27T20:52:43.128768","LAUNCH_DATE":"2022-10-20","MEAN_ANOMALY":"282.2431","REV_AT_EPOCH":"2957","OBJECT_TYPE":"PAYLOAD","INCLINATION":"53.2171","TIME_SYSTEM":"UTC","CLASSIFICATION_TYPE":"U","SITE":"AFETR","RA_OF_ASC_NODE":"343.2427","SEMIMAJOR_AXIS":"6917.845","MEAN_MOTION_DDOT":"0.0000000000000","RCS_SIZE":"LARGE","PERIAPSIS":"538.635","DECAY_DATE":null,"GP_ID":"230847803"},{"RA_OF_ASC_NODE":"344.6432","SEMIMAJOR_AXIS":"6917.878","MEAN_MOTION_DDOT":"0.0000000000000","RCS_SIZE":"LARGE","PERIAPSIS":"539.212","DECAY_DATE":null,"GP_ID":"230847808","LAUNCH_DATE":"2022-10-20","MEAN_ANOMALY":"356.4159","REV_AT_EPOCH":"2953","OBJECT_TYPE":"PAYLOAD","INCLINATION":"53.2236","TIME_SYSTEM":"UTC","CLASSIFICATION_TYPE":"U","SITE":"AFETR","OBJECT_ID":"2022-136AD","TLE_LINE2":"2 54078  53.2236 344.6432 0000768   3.6839 356.4159 15.08840807 29536","REF_FRAME":"TEME","TLE_LINE1":"1 54078U 22136AD  23117.63816114  .00013325  00000-0  85371-3 0  9993","CENTER_NAME":"EARTH","MEAN_MOTION":"15.08840807","APOAPSIS":"540.274","ARG_OF_PERICENTER":"3.6839","PERIOD":"95.438","EPOCH":"2023-04-27T15:18:57.122496","MEAN_ELEMENT_THEORY":"SGP4","BSTAR":"0.00085371000000","ELEMENT_SET_NO":"999","ECCENTRICITY":"0.00007680","NORAD_CAT_ID":"54078","EPHEMERIS_TYPE":"0","OBJECT_NAME":"STARLINK-5138","COUNTRY_CODE":"US","MEAN_MOTION_DOT":"0.00013325","FILE":"3895043"}];
